{"fetched_at":"2026-07-23T17:55:29.379Z","source":"https://celestrak.org/NORAD/elements/gp.php?NAME=GHGSAT&FORMAT=JSON","constellation":"ghgsat","records":[{"OBJECT_NAME":"GHGSAT-C1","OBJECT_ID":"2020-061G","EPOCH":"2026-07-22T16:01:28.875648","CLASSIFICATION_TYPE":"U","MEAN_MOTION":15.73916649,"ECCENTRICITY":0.00015818,"INCLINATION":97.2087,"RA_OF_ASC_NODE":290.0227,"ARG_OF_PERICENTER":169.3751,"MEAN_ANOMALY":190.7547,"EPHEMERIS_TYPE":0,"NORAD_CAT_ID":46278,"ELEMENT_SET_NO":999,"REV_AT_EPOCH":32905,"BSTAR":0.00031455205,"MEAN_MOTION_DOT":0.00044523,"MEAN_MOTION_DDOT":0},{"OBJECT_NAME":"GHGSAT-C2","OBJECT_ID":"2021-006DA","EPOCH":"2026-07-23T03:05:29.135616","CLASSIFICATION_TYPE":"U","MEAN_MOTION":15.38177109,"ECCENTRICITY":0.00062292,"INCLINATION":97.213,"RA_OF_ASC_NODE":250.7822,"ARG_OF_PERICENTER":54.0637,"MEAN_ANOMALY":306.1186,"EPHEMERIS_TYPE":0,"NORAD_CAT_ID":47509,"ELEMENT_SET_NO":999,"REV_AT_EPOCH":30537,"BSTAR":0.00016549681,"MEAN_MOTION_DOT":0.00006144,"MEAN_MOTION_DDOT":0},{"OBJECT_NAME":"GHGSAT-C3","OBJECT_ID":"2022-057F","EPOCH":"2026-07-23T07:09:55.713600","CLASSIFICATION_TYPE":"U","MEAN_MOTION":15.34753377,"ECCENTRICITY":0.00056088,"INCLINATION":97.6638,"RA_OF_ASC_NODE":351.3281,"ARG_OF_PERICENTER":8.3675,"MEAN_ANOMALY":351.7659,"EPHEMERIS_TYPE":0,"NORAD_CAT_ID":52737,"ELEMENT_SET_NO":999,"REV_AT_EPOCH":23107,"BSTAR":0.00021102428,"MEAN_MOTION_DOT":0.00007026,"MEAN_MOTION_DDOT":0},{"OBJECT_NAME":"GHGSAT-C5","OBJECT_ID":"2022-057N","EPOCH":"2026-07-23T08:06:45.644256","CLASSIFICATION_TYPE":"U","MEAN_MOTION":15.34729566,"ECCENTRICITY":0.00062887,"INCLINATION":97.6724,"RA_OF_ASC_NODE":352.9845,"ARG_OF_PERICENTER":4.7607,"MEAN_ANOMALY":355.3694,"EPHEMERIS_TYPE":0,"NORAD_CAT_ID":52744,"ELEMENT_SET_NO":999,"REV_AT_EPOCH":23108,"BSTAR":0.00020014643,"MEAN_MOTION_DOT":0.00006655,"MEAN_MOTION_DDOT":0},{"OBJECT_NAME":"GHGSAT-C4","OBJECT_ID":"2022-057Q","EPOCH":"2026-07-23T06:05:59.093088","CLASSIFICATION_TYPE":"U","MEAN_MOTION":15.34738969,"ECCENTRICITY":0.000543,"INCLINATION":97.6563,"RA_OF_ASC_NODE":350.0768,"ARG_OF_PERICENTER":350.0721,"MEAN_ANOMALY":10.0413,"EPHEMERIS_TYPE":0,"NORAD_CAT_ID":52746,"ELEMENT_SET_NO":999,"REV_AT_EPOCH":23107,"BSTAR":0.00019688277,"MEAN_MOTION_DOT":0.00006546,"MEAN_MOTION_DDOT":0},{"OBJECT_NAME":"GHGSAT-C8","OBJECT_ID":"2023-054J","EPOCH":"2026-07-23T07:07:36.427296","CLASSIFICATION_TYPE":"U","MEAN_MOTION":15.539623,"ECCENTRICITY":0.00016886,"INCLINATION":97.2944,"RA_OF_ASC_NODE":114.1561,"ARG_OF_PERICENTER":320.9939,"MEAN_ANOMALY":39.1193,"EPHEMERIS_TYPE":0,"NORAD_CAT_ID":56186,"ELEMENT_SET_NO":999,"REV_AT_EPOCH":18404,"BSTAR":0.00027480555,"MEAN_MOTION_DOT":0.00017656,"MEAN_MOTION_DDOT":0},{"OBJECT_NAME":"GHGSAT-C6","OBJECT_ID":"2023-054AC","EPOCH":"2026-07-23T06:19:09.272928","CLASSIFICATION_TYPE":"U","MEAN_MOTION":15.5393353,"ECCENTRICITY":0.00032341,"INCLINATION":97.3006,"RA_OF_ASC_NODE":114.8314,"ARG_OF_PERICENTER":255.1538,"MEAN_ANOMALY":104.9357,"EPHEMERIS_TYPE":0,"NORAD_CAT_ID":56204,"ELEMENT_SET_NO":999,"REV_AT_EPOCH":18405,"BSTAR":0.00024852395,"MEAN_MOTION_DOT":0.0001594,"MEAN_MOTION_DDOT":0},{"OBJECT_NAME":"GHGSAT-C7","OBJECT_ID":"2023-054AH","EPOCH":"2026-07-23T06:42:05.467680","CLASSIFICATION_TYPE":"U","MEAN_MOTION":15.50579232,"ECCENTRICITY":0.00048684,"INCLINATION":97.2957,"RA_OF_ASC_NODE":113.1189,"ARG_OF_PERICENTER":262.5242,"MEAN_ANOMALY":97.5457,"EPHEMERIS_TYPE":0,"NORAD_CAT_ID":56209,"ELEMENT_SET_NO":999,"REV_AT_EPOCH":18398,"BSTAR":0.00020450261,"MEAN_MOTION_DOT":0.00011608,"MEAN_MOTION_DDOT":0},{"OBJECT_NAME":"GHGSAT-C12","OBJECT_ID":"2025-135B","EPOCH":"2026-07-23T05:58:13.725408","CLASSIFICATION_TYPE":"U","MEAN_MOTION":15.20482407,"ECCENTRICITY":0.00060948,"INCLINATION":97.477,"RA_OF_ASC_NODE":318.7464,"ARG_OF_PERICENTER":59.8952,"MEAN_ANOMALY":300.2886,"EPHEMERIS_TYPE":0,"NORAD_CAT_ID":64529,"ELEMENT_SET_NO":999,"REV_AT_EPOCH":6030,"BSTAR":0.00014962579,"MEAN_MOTION_DOT":0.000032,"MEAN_MOTION_DDOT":0},{"OBJECT_NAME":"GHGSAT-C13","OBJECT_ID":"2025-135W","EPOCH":"2026-07-23T07:07:53.615712","CLASSIFICATION_TYPE":"U","MEAN_MOTION":15.21467078,"ECCENTRICITY":0.00014903,"INCLINATION":97.48,"RA_OF_ASC_NODE":319.4247,"ARG_OF_PERICENTER":61.4972,"MEAN_ANOMALY":298.6414,"EPHEMERIS_TYPE":0,"NORAD_CAT_ID":64548,"ELEMENT_SET_NO":999,"REV_AT_EPOCH":6034,"BSTAR":0.00024217911,"MEAN_MOTION_DOT":0.00005374,"MEAN_MOTION_DDOT":0}]}
