GHGSAT-C1               
1 46278U 20061G   26203.66769532  .00044523  00000+0  31455-3 0  9991
2 46278  97.2087 290.0227 0001581 169.3751 190.7547 15.73916649329054
GHGSAT-C2               
1 47509U 21006DA  26204.12880944  .00006144  00000+0  16550-3 0  9998
2 47509  97.2130 250.7822 0006229  54.0637 306.1186 15.38177109305374
GHGSAT-C3               
1 52737U 22057F   26204.29856150  .00007026  00000+0  21102-3 0  9993
2 52737  97.6638 351.3281 0005608   8.3675 351.7659 15.34753377231070
GHGSAT-C5               
1 52744U 22057N   26204.33802829  .00006655  00000+0  20015-3 0  9999
2 52744  97.6724 352.9845 0006288   4.7607 355.3694 15.34729566231080
GHGSAT-C4               
1 52746U 22057Q   26204.25415617  .00006546  00000+0  19688-3 0  9990
2 52746  97.6563 350.0768 0005430 350.0721  10.0413 15.34738969231078
GHGSAT-C8               
1 56186U 23054J   26204.29694939  .00017656  00000+0  27481-3 0  9994
2 56186  97.2944 114.1561 0001688 320.9939  39.1193 15.53962300184047
GHGSAT-C6               
1 56204U 23054AC  26204.26330177  .00015940  00000+0  24852-3 0  9996
2 56204  97.3006 114.8314 0003234 255.1538 104.9357 15.53933530184051
GHGSAT-C7               
1 56209U 23054AH  26204.27922995  .00011608  00000+0  20450-3 0  9994
2 56209  97.2957 113.1189 0004868 262.5242  97.5457 15.50579232183981
GHGSAT-C12              
1 64529U 25135B   26204.24876997  .00003200  00000+0  14963-3 0  9998
2 64529  97.4770 318.7464 0006094  59.8952 300.2886 15.20482407 60301
GHGSAT-C13              
1 64548U 25135W   26204.29714833  .00005374  00000+0  24218-3 0  9992
2 64548  97.4800 319.4247 0001490  61.4972 298.6414 15.21467078 60348
